[{"OBJECT_NAME":"GENMAT-1","OBJECT_ID":"2023-174W","EPOCH":"2026-03-09T18:03:23.351040","MEAN_MOTION":15.32594666,"ECCENTRICITY":0.00074416,"INCLINATION":97.3728,"RA_OF_ASC_NODE":146.8236,"ARG_OF_PERICENTER":169.2515,"MEAN_ANOMALY":190.8888,"EPHEMERIS_TYPE":0,"CLASSIFICATION_TYPE":"U","NORAD_CAT_ID":58276,"ELEMENT_SET_NO":999,"REV_AT_EPOCH":12973,"BSTAR":0.00042157222,"MEAN_MOTION_DOT":0.0001321,"MEAN_MOTION_DDOT":0},{"OBJECT_NAME":"STARLINK-35103","OBJECT_ID":"2025-210M","EPOCH":"2026-03-09T21:22:17.484096","MEAN_MOTION":15.30191679,"ECCENTRICITY":0.00012047,"INCLINATION":53.158,"RA_OF_ASC_NODE":306.02,"ARG_OF_PERICENTER":88.3007,"MEAN_ANOMALY":271.8132,"EPHEMERIS_TYPE":0,"CLASSIFICATION_TYPE":"U","NORAD_CAT_ID":65633,"ELEMENT_SET_NO":999,"REV_AT_EPOCH":2776,"BSTAR":0.00058452266,"MEAN_MOTION_DOT":0.00016988,"MEAN_MOTION_DDOT":0}]
